H1 CPF 01  gfz 2022 11 17 01  8211 terrasarx 
H2 0702601  6201 31698    2022 11 17 00 59 42 2022 11 22 00 00 42   120 1 1  0 0 0
H9
10 0 59902  46062.000000  0   -1032721.134   -621931.555  -6788925.145
10 0 59902  46182.000000  0    -854635.519    277516.416  -6836343.595
10 0 59902  46302.000000  0    -646081.221   1168776.723  -6764553.950
10 0 59902  46422.000000  0    -410949.502   2035916.275  -6574789.053
10 0 59902  46542.000000  0    -153866.543   2863479.822  -6270311.545
10 0 59902  46662.000000  0     119893.884   3636761.133  -5856365.589
10 0 59902  46782.000000  0     404514.415   4342063.141  -5340095.372
10 0 59902  46902.000000  0     693751.687   4966941.613  -4730432.861
10 0 59902  47022.000000  0     981066.670   5500430.998  -4037955.016
10 0 59902  47142.000000  0    1259765.588   5933246.052  -3274709.708
10 0 59902  47262.000000  0    1523148.131   6257954.484  -2454013.569
10 0 59902  47382.000000  0    1764660.039   6469117.323  -1590223.698
10 0 59902  47502.000000  0    1978046.636   6563392.217   -698486.109
10 0 59902  47622.000000  0    2157503.139   6539595.347    205534.270
10 0 59902  47742.000000  0    2297817.318   6398720.117   1105935.355
10 0 59902  47862.000000  0    2394501.408   6143912.457   1986865.286
10 0 59902  47982.000000  0    2443909.624   5780403.035   2832809.666
10 0 59902  48102.000000  0    2443338.678   5315398.402   3628872.435
10 0 59902  48222.000000  0    2391108.362   4757933.320   4361045.056
10 0 59902  48342.000000  0    2286619.499   4118687.144   5016458.758
10 0 59902  48462.000000  0    2130387.238   3409767.210   5583610.184
10 0 59902  48582.000000  0    1924052.204   2644472.247   6052558.540
10 0 59902  48702.000000  0    1670368.385   1837037.276   6415095.905
10 0 59902  48822.000000  0    1373166.814   1002363.262   6664885.610
10 0 59902  48942.000000  0    1037296.780    155739.176   6797565.652
10 0 59902  49062.000000  0     668546.336   -687436.845   6810819.878
10 0 59902  49182.000000  0     273542.332  -1511937.352   6704417.590
10 0 59902  49302.000000  0    -140368.890  -2302980.640   6480217.143
10 0 59902  49422.000000  0    -565258.063  -3046496.248   6142135.135
10 0 59902  49542.000000  0    -992763.122  -3729376.154   5696079.975
10 0 59902  49662.000000  0   -1414250.617  -4339706.805   5149854.264
10 0 59902  49782.000000  0   -1820988.707  -4866982.065   4513027.164
10 0 59902  49902.000000  0   -2204328.093  -5302293.096   3796773.303
10 0 59902  50022.000000  0   -2555885.938  -5638488.570   3013678.837
10 0 59902  50142.000000  0   -2867727.823  -5870299.320   2177519.448
10 0 59902  50262.000000  0   -3132543.912  -5994426.834   1303015.594
10 0 59902  50382.000000  0   -3343815.352  -6009593.322    405568.158
10 0 59902  50502.000000  0   -3495966.461  -5916551.242   -499020.102
10 0 59902  50622.000000  0   -3584498.869  -5718051.986  -1394831.654
10 0 59902  50742.000000  0   -3606103.960  -5418773.571  -2266123.387
10 0 59902  50862.000000  0   -3558750.826  -5025209.580  -3097610.860
10 0 59902  50982.000000  0   -3441747.230  -4545522.592  -3874741.247
10 0 59902  51102.000000  0   -3255772.376  -3989367.162  -4583948.472
10 0 59902  51222.000000  0   -3002882.112  -3367687.986  -5212886.612
10 0 59902  51342.000000  0   -2686486.971  -2692497.619  -5750638.055
10 0 59902  51462.000000  0   -2311304.068  -1976639.564  -6187893.586
10 0 59902  51582.000000  0   -1883283.431  -1233541.595  -6517103.318
10 0 59902  51702.000000  0   -1409510.635   -476963.796  -6732595.334
10 0 59902  51822.000000  0    -898089.243    279252.978  -6830661.959
10 0 59902  51942.000000  0    -358004.293   1021434.039  -6809616.320
10 0 59902  52062.000000  0     201032.243   1736311.784  -6669818.068
10 0 59902  52182.000000  0     768750.407   2411256.441  -6413668.925
10 0 59902  52302.000000  0    1334507.189   3034495.764  -6045577.691
10 0 59902  52422.000000  0    1887481.833   3595318.996  -5571891.645
10 0 59902  52542.000000  0    2416879.174   4084261.517  -5000797.343
10 0 59902  52662.000000  0    2912138.415   4493268.466  -4342190.933
10 0 59902  52782.000000  0    3363143.417   4815834.616  -3607517.251
10 0 59902  52902.000000  0    3760430.388   5047116.016  -2809579.611
10 0 59902  53022.000000  0    4095389.235   5184010.722  -1962321.701
10 0 59902  53142.000000  0    4360451.618   5225205.465  -1080585.587
10 0 59902  53262.000000  0    4549262.422   5171188.603   -179849.641
10 0 59902  53382.000000  0    4656829.467   5024225.235    724049.325
10 0 59902  53502.000000  0    4679645.618   4788295.900   1615201.574
10 0 59902  53622.000000  0    4615782.887   4469002.913   2477911.692
10 0 59902  53742.000000  0    4464955.791   4073443.149   3296985.162
10 0 59902  53862.000000  0    4228548.363   3610050.287   4058003.886
10 0 59902  53982.000000  0    3909607.486   3088412.029   4747583.791
10 0 59902  54102.000000  0    3512804.438   2519068.505   5353612.382
10 0 59902  54222.000000  0    3044360.541   1913293.738   5865461.149
10 0 59902  54342.000000  0    2511944.189   1282868.909   6274166.341
10 0 59902  54462.000000  0    1924541.021    639849.947   6572579.957
10 0 59902  54582.000000  0    1292298.793     -3663.334   6755487.916
10 0 59902  54702.000000  0     626349.951   -635753.615   6819697.204
10 0 59902  54822.000000  0     -61385.442  -1244907.255   6764088.529
10 0 59902  54942.000000  0    -758413.283  -1820223.637   6589633.968
10 0 59902  55062.000000  0   -1451892.056  -2351610.287   6299379.891
10 0 59902  55182.000000  0   -2128867.250  -2829959.506   5898395.906
10 0 59902  55302.000000  0   -2776511.826  -3247305.898   5393693.745
10 0 59902  55422.000000  0   -3382372.412  -3596963.493   4794112.462
10 0 59902  55542.000000  0   -3934613.680  -3873636.697   4110167.831
10 0 59902  55662.000000  0   -4422253.550  -4073503.598   3353871.098
10 0 59902  55782.000000  0   -4835386.027  -4194270.514   2538520.309
10 0 59902  55902.000000  0   -5165387.978  -4235196.897   1678466.137
10 0 59902  56022.000000  0   -5405103.198  -4197088.000    788854.530
10 0 59902  56142.000000  0   -5548998.828  -4082255.363   -114646.629
10 0 59902  56262.000000  0   -5593290.393  -3894446.631  -1016131.898
10 0 59902  56382.000000  0   -5536031.762  -3638745.889  -1899748.238
10 0 59902  56502.000000  0   -5377166.141  -3321446.135  -2749982.570
10 0 59902  56622.000000  0   -5118538.888  -2949899.562  -3551939.204
10 0 59902  56742.000000  0   -4763872.775  -2532349.153  -4291602.760
10 0 59902  56862.000000  0   -4318706.877  -2077746.186  -4956081.660
10 0 59902  56982.000000  0   -3790300.573  -1595558.405  -5533827.842
10 0 59902  57102.000000  0   -3187506.078  -1095572.828  -6014829.272
10 0 59902  57222.000000  0   -2520612.936   -587697.980  -6390772.693
10 0 59902  57342.000000  0   -1801167.587    -81769.916  -6655175.936
10 0 59902  57462.000000  0   -1041771.492    412634.191  -6803487.723
10 0 59902  57582.000000  0    -255863.552    886372.031  -6833156.883
10 0 59902  57702.000000  0     542512.266   1330900.979  -6743671.174
10 0 59902  57822.000000  0    1338950.674   1738427.325  -6536566.687
10 0 59902  57942.000000  0    2118940.008   2102041.055  -6215405.684
10 0 59902  58062.000000  0    2868121.808   2415832.068  -5785721.766
10 0 59902  58182.000000  0    3572551.806   2674986.339  -5254933.054
10 0 59902  58302.000000  0    4218958.146   2875860.993  -4632226.201
10 0 59902  58422.000000  0    4794995.087   3016037.582  -3928408.926
10 0 59902  58542.000000  0    5289484.638   3094350.720  -3155731.161
10 0 59902  58662.000000  0    5692640.381   3110892.170  -2327679.211
10 0 59902  58782.000000  0    5996271.134   3066990.477  -1458744.016
10 0 59902  58902.000000  0    6193955.765   2965163.452   -564166.323
10 0 59902  59022.000000  0    6281185.715   2809046.453    340334.590
10 0 59902  59142.000000  0    6255470.075   2603295.655   1238844.346
10 0 59902  59262.000000  0    6116400.931   2353471.533   2115540.615
10 0 59902  59382.000000  0    5865677.809   2065904.655   2954981.108
10 0 59902  59502.000000  0    5507088.106   1747545.253   3742384.189
10 0 59902  59622.000000  0    5046445.111   1405802.347   4463895.600
10 0 59902  59742.000000  0    4491485.308   1048375.858   5106834.283
10 0 59902  59862.000000  0    3851730.834    683086.775   5659915.186
10 0 59902  59982.000000  0    3138315.983    317707.929   6113445.716
10 0 59902  60102.000000  0    2363784.599    -40198.602   6459488.713
10 0 59902  60222.000000  0    1541865.175   -383435.017   6691995.074
10 0 59902  60342.000000  0     687224.370   -705310.746   6806905.106
10 0 59902  60462.000000  0    -184797.321   -999771.838   6802214.743
10 0 59902  60582.000000  0   -1058460.798  -1261514.073   6678007.361
10 0 59902  60702.000000  0   -1917911.461  -1486078.672   6436451.376
10 0 59902  60822.000000  0   -2747464.884  -1669927.708   6081763.849
10 0 59902  60942.000000  0   -3531892.181  -1810499.384   5620143.785
10 0 59902  61062.000000  0   -4256704.164  -1906243.837   5059671.180
10 0 59902  61182.000000  0   -4908424.672  -1956637.336   4410170.655
10 0 59902  61302.000000  0   -5474848.366  -1962173.745   3683042.956
10 0 59902  61422.000000  0   -5945276.800  -1924333.177   2891067.292
10 0 59902  61542.000000  0   -6310729.198  -1845529.818   2048178.332
10 0 59902  61662.000000  0   -6564124.547  -1729040.051   1169218.738
10 0 59902  61782.000000  0   -6700425.704  -1578910.854    269670.393
10 0 59902  61902.000000  0   -6716742.904  -1399851.107   -634626.200
10 0 59902  62022.000000  0   -6612394.012  -1197108.834  -1527760.276
10 0 59902  62142.000000  0   -6388919.688   -976337.946  -2394039.184
10 0 59902  62262.000000  0   -6050054.406   -743458.512  -3218270.474
10 0 59902  62382.000000  0   -5601653.974   -504513.311  -3986032.754
10 0 59902  62502.000000  0   -5051581.996   -265523.465  -4683928.530
99
